     2.100          NAVIGATION                              RINEX VERSION / TYPE
fic2rin                                 06/22/2010 00:07:04 PGM / RUN BY / DATE
                                                            END OF HEADER
 3 10  6 21  1 59 44.0  .571143813431D-03  .511590769747D-11  .000000000000D+00
     .100000000000D+02 -.296562500000D+02  .563309178374D-08  .226721225079D+01
    -.176392495632D-05  .132123082876D-01  .661239027977D-05  .515371050453D+04
     .935840000000D+05 -.651925802231D-07 -.230020966275D+01 -.258907675743D-06
     .927171549879D+00  .234031250000D+03  .100137306188D+01 -.834463330176D-08
    -.154292141173D-09  .100000000000D+01  .158900000000D+04  .000000000000D+00
     .240000000000D+01  .000000000000D+00 -.465661287308D-08  .100000000000D+02
     .864060000000D+05  .400000000000D+01
19 10  6 21  1 59 44.0 -.437740236521D-04 -.284217094304D-11  .000000000000D+00
     .230000000000D+02 -.219062500000D+02  .493663420206D-08  .286562340275D+01
    -.110082328320D-05  .660481071100D-02  .778585672379D-05  .515374566460D+04
     .935840000000D+05 -.154599547386D-06 -.210032449028D+01  .726431608200D-07
     .957630586849D+00  .228656250000D+03 -.141831667675D+00 -.801176229349D-08
    -.248581783000D-09  .100000000000D+01  .158900000000D+04  .000000000000D+00
     .240000000000D+01  .000000000000D+00 -.149011611938D-07  .230000000000D+02
     .864060000000D+05  .400000000000D+01
27 10  6 21  1 59 44.0  .162910670042D-03  .341060513165D-11  .000000000000D+00
     .108000000000D+03 -.792812500000D+02  .384087427354D-08  .312184220329D+01
    -.421516597271D-05  .215124938404D-01  .889226794243D-05  .515362229156D+04
     .935840000000D+05  .379979610443D-06  .195788445788D+01  .119209289551D-06
     .978502621328D+00  .210593750000D+03 -.140825490468D+01 -.744923886213D-08
     .156077929844D-09  .100000000000D+01  .158900000000D+04  .000000000000D+00
     .240000000000D+01  .000000000000D+00 -.419095158577D-08  .108000000000D+03
     .864060000000D+05  .400000000000D+01
 1 10  6 21  2  0  0.0 -.132870860398D-03 -.397903932026D-11  .000000000000D+00
     .760000000000D+02 -.353125000000D+01  .467305179422D-08 -.229613010795D+01
    -.413507223129D-06  .480705720838D-02  .741705298424D-05  .515479320526D+04
     .936000000000D+05  .987201929092D-07  .305316726079D+01 -.558793544769D-08
     .965340706407D+00  .236531250000D+03  .878644238465D+00 -.801783397497D-08
     .487520307178D-09  .100000000000D+01  .158900000000D+04  .000000000000D+00
     .240000000000D+01  .630000000000D+02 -.190921127796D-07  .760000000000D+02
     .864060000000D+05  .400000000000D+01
 2 10  6 21  2  0  0.0  .266370363533D-03  .318323145621D-11  .000000000000D+00
     .740000000000D+02  .396875000000D+02  .479769984346D-08  .234906251147D+01
     .215508043766D-05  .958438916132D-02  .115651637316D-04  .515360397720D+04
     .936000000000D+05 -.139698386192D-06 -.114708317993D+01  .145286321640D-06
     .939546259804D+00  .146718750000D+03  .309176273505D+01 -.804604943597D-08
    -.435375277985D-09  .100000000000D+01  .158900000000D+04  .000000000000D+00
     .240000000000D+01  .000000000000D+00 -.172294676304D-07  .740000000000D+02
     .864060000000D+05  .400000000000D+01
 4 10  6 21  2  0  0.0  .108291860670D-03  .807176547823D-11  .000000000000D+00
     .107000000000D+03  .510312500000D+02  .491020452973D-08 -.843708240612D+00
     .259093940258D-05  .909166131169D-02  .110212713480D-04  .515370810699D+04
     .936000000000D+05  .182539224625D-06 -.112924723882D+01  .109896063805D-06
     .938692810952D+00  .154781250000D+03  .610493156850D+00 -.819141263379D-08
    -.393944980818D-09  .100000000000D+01  .158900000000D+04  .000000000000D+00
     .340000000000D+01  .000000000000D+00 -.605359673500D-08  .107000000000D+03
     .864060000000D+05  .400000000000D+01
 5 10  6 21  2  0  0.0 -.852392986417D-05 -.238742359215D-11  .000000000000D+00
     .570000000000D+02  .101312500000D+03  .454804658725D-08 -.230953605809D+01
     .526569783688D-05  .182383065112D-02  .560842454433D-05  .515372897339D+04
     .936000000000D+05 -.279396772385D-07 -.873937298082D-01  .931322574615D-08
     .958366320535D+00  .271062500000D+03  .255697789582D+00 -.822462830307D-08
     .119647840956D-09  .100000000000D+01  .158900000000D+04  .000000000000D+00
     .240000000000D+01  .000000000000D+00 -.884756445885D-08  .570000000000D+02
     .864060000000D+05  .400000000000D+01
 6 10  6 21  2  0  0.0  .600819475949D-03 -.130739863380D-10  .000000000000D+00
     .760000000000D+02 -.220000000000D+02  .550665794584D-08 -.180229809357D+01
    -.104866921902D-05  .630662648473D-02  .701285898685D-05  .515365454102D+04
     .936000000000D+05 -.186264514923D-06 -.222938469295D+01  .122934579849D-06
     .934442280529D+00  .231750000000D+03 -.103682675426D+01 -.842927968476D-08
    -.202151277555D-09  .100000000000D+01  .158900000000D+04  .000000000000D+00
     .240000000000D+01  .000000000000D+00 -.512227416039D-08  .760000000000D+02
     .864060000000D+05  .400000000000D+01
 7 10  6 21  2  0  0.0 -.133644789457D-05 -.227373675443D-12  .000000000000D+00
     .710000000000D+02 -.665312500000D+02  .404516849750D-08  .766701991347D+00
    -.343285501003D-05  .364584650379D-02  .981613993645D-05  .515371500969D+04
     .936000000000D+05  .577419996262D-07  .201398025644D+01  .745058059692D-07
     .971786343945D+00  .196531250000D+03  .303240378214D+01 -.785711299458D-08
     .222152110670D-09  .100000000000D+01  .158900000000D+04  .000000000000D+00
     .240000000000D+01  .000000000000D+00 -.102445483208D-07  .710000000000D+02
     .864060000000D+05  .400000000000D+01
 8 10  6 21  2  0  0.0  .582588836551D-05  .113686837722D-12  .000000000000D+00
     .550000000000D+02 -.657500000000D+02  .364550899294D-08  .125698773870D+00
    -.333972275257D-05  .111539505888D-01  .100769102573D-04  .515368656158D+04
     .936000000000D+05  .149011611938D-06  .208241106425D+01  .242143869400D-07
     .993209253392D+00  .201593750000D+03  .310376688343D+01 -.776389482595D-08
     .280725979078D-09  .100000000000D+01  .158900000000D+04  .000000000000D+00
     .240000000000D+01  .000000000000D+00 -.372529029846D-08  .550000000000D+02
     .864060000000D+05  .400000000000D+01
 9 10  6 21  2  0  0.0  .136937014759D-04  .216004991671D-11  .000000000000D+00
     .860000000000D+02 -.662812500000D+02  .399088052191D-08  .843120797080D-02
    -.365264713764D-05  .171278738417D-01  .903755426407D-05  .515371166611D+04
     .936000000000D+05 -.255182385445D-06  .198295117881D+01  .167638063431D-07
     .980855631431D+00  .221031250000D+03  .152509112626D+01 -.805997858760D-08
     .162149611325D-09  .100000000000D+01  .158900000000D+04  .000000000000D+00
     .240000000000D+01  .000000000000D+00 -.558793544769D-08  .860000000000D+02
     .864060000000D+05  .400000000000D+01
10 10  6 21  2  0  0.0 -.451072119176D-04 -.909494701773D-12  .000000000000D+00
     .850000000000D+02  .985625000000D+02  .461590655675D-08 -.223763857915D+01
     .507943332195D-05  .917647394817D-02  .519491732121D-05  .515352286911D+04
     .936000000000D+05 -.745058059692D-08 -.617761280580D-01 -.111758708954D-06
     .953387763079D+00  .276812500000D+03  .665520014334D+00 -.817391190481D-08
     .179650340301D-09  .100000000000D+01  .158900000000D+04  .000000000000D+00
     .340000000000D+01  .000000000000D+00 -.279396772385D-08  .850000000000D+02
     .864060000000D+05  .400000000000D+01
11 10  6 21  2  0  0.0 -.703688710928D-04 -.250111042988D-11  .000000000000D+00
     .960000000000D+02  .191875000000D+02  .631562021379D-08  .629784572712D+00
     .129081308842D-05  .107144351350D-01  .967830419540D-05  .515374958229D+04
     .936000000000D+05 -.447034835815D-07 -.136696979116D+01  .106170773506D-06
     .888003480704D+00  .152906250000D+03  .809660421286D+00 -.895465871176D-08
    -.519664503255D-09  .100000000000D+01  .158900000000D+04  .000000000000D+00
     .240000000000D+01  .000000000000D+00 -.116415321827D-07  .960000000000D+02
     .864060000000D+05  .400000000000D+01
12 10  6 21  2  0  0.0 -.101928133518D-03  .409272615798D-11  .000000000000D+00
     .450000000000D+02 -.490625000000D+01  .459483425043D-08  .702474303709D+00
    -.208616256714D-06  .349080073647D-02  .779330730438D-05  .515366660309D+04
     .936000000000D+05  .670552253723D-07  .306767190483D+01 -.577419996262D-07
     .971424672560D+00  .238093750000D+03 -.405432191924D+00 -.796747473445D-08
     .461804950316D-09  .100000000000D+01  .158900000000D+04  .000000000000D+00
     .240000000000D+01  .000000000000D+00 -.116415321827D-07  .450000000000D+02
     .864060000000D+05  .400000000000D+01
13 10  6 21  2  0  0.0  .303004402667D-03 -.454747350886D-12  .000000000000D+00
     .700000000000D+02 -.522500000000D+02  .376158525655D-08 -.308254101003D+01
    -.266358256340D-05  .451261887792D-02  .459514558315D-05  .515374632263D+04
     .936000000000D+05  .186264514923D-07  .103269006958D+01  .409781932831D-07
     .992633244028D+00  .306687500000D+03  .174591874930D+01 -.787532803902D-08
    -.187507810453D-09  .100000000000D+01  .158900000000D+04  .000000000000D+00
     .240000000000D+01  .000000000000D+00 -.107102096081D-07  .700000000000D+02
     .864060000000D+05  .400000000000D+01
14 10  6 21  2  0  0.0  .593024305999D-04  .420641299570D-11  .000000000000D+00
     .770000000000D+02 -.382500000000D+02  .380122976505D-08  .308834594651D+01
    -.197440385818D-05  .513813737780D-02  .443309545517D-05  .515375417709D+04
     .936000000000D+05  .000000000000D+00  .101072727022D+01 -.465661287308D-07
     .985892437897D+00  .307343750000D+03 -.214401585681D+01 -.786282751833D-08
    -.603596570791D-10  .100000000000D+01  .158900000000D+04  .000000000000D+00
     .240000000000D+01  .000000000000D+00 -.884756445885D-08  .770000000000D+02
     .864060000000D+05  .400000000000D+01
